{"type":"FeatureCollection","features":[{"type":"Feature","id":"relation/1200851","properties":{"timestamp":"2017-03-19T19:29:54Z","version":"2","changeset":"46991517","user":"hecktor","uid":"465052","addr:city":"Yverdon-les-Bains","addr:country":"CH","addr:postcode":"1400","building":"yes","source":"Orthophoto Yverdon 2007 / HEIG-VD","type":"multipolygon","id":"relation/1200851"},"geometry":{"type":"Polygon","coordinates":[[[6.6484326,46.7820931],[6.6485847,46.7820392],[6.6485606,46.7820072],[6.6487151,46.7819525],[6.6489372,46.7822468],[6.6492854,46.7821236],[6.6492486,46.7820749],[6.6493588,46.7820359],[6.6493963,46.7820856],[6.6495592,46.782028],[6.6494742,46.7819154],[6.6495201,46.7818992],[6.6494411,46.7817945],[6.6493832,46.781815],[6.6493145,46.7817239],[6.6494975,46.7816591],[6.649509,46.7816744],[6.6496479,46.7816252],[6.6496937,46.7816859],[6.6495587,46.7817337],[6.6495666,46.7817443],[6.6495516,46.7817496],[6.6500474,46.7824065],[6.6499835,46.7824291],[6.6499935,46.7824424],[6.6490962,46.78276],[6.648966,46.7825876],[6.6488396,46.7826323],[6.6484326,46.7820931]],[[6.6491318,46.7826036],[6.6497822,46.7823751],[6.6496282,46.7821695],[6.6489778,46.7823981],[6.6491318,46.7826036]]]}},{"type":"Feature","id":"relation/7400830","properties":{"timestamp":"2017-07-17T16:36:45Z","version":"1","changeset":"50356725","user":"Halbtax","uid":"4671660","landuse":"industrial","type":"multipolygon","id":"relation/7400830"},"geometry":{"type":"Polygon","coordinates":[[[6.6439283,46.7812288],[6.6443714,46.7818777],[6.6444173,46.7819566],[6.6445082,46.7820673],[6.644658,46.7822622],[6.6448248,46.7825068],[6.6451989,46.7829969],[6.6452941,46.783092],[6.6444236,46.7835696],[6.644224,46.7836807],[6.644047,46.7837945],[6.6438959,46.7838728],[6.6437448,46.7839459],[6.6436069,46.7840092],[6.6433497,46.7840785],[6.6431058,46.7841367]]]}},{"type":"Feature","id":"way/79701353","properties":{"timestamp":"2013-09-23T07:20:22Z","version":"2","changeset":"17985925","user":"cquest","uid":"158826","leisure":"pitch","source":"Orthophoto Yverdon 2007 / HEIG-VD","sport":"soccer","surface":"grass","id":"way/79701353"},"geometry":{"type":"Polygon","coordinates":[[[6.646997,46.7838544],[6.6463481,46.7830275],[6.6471254,46.7827414],[6.6477743,46.7835684],[6.646997,46.7838544]]]}},{"type":"Feature","id":"way/79741526","properties":{"timestamp":"2010-09-29T20:34:52Z","version":"2","changeset":"5915355","user":"Romain Aviolat [Xens]","uid":"4786","addr:city":"Yverdon-les-Bains","addr:country":"CH","addr:postcode":"1400","building":"yes","source":"Orthophoto Yverdon 2007 / HEIG-VD","id":"way/79741526"},"geometry":{"type":"Polygon","coordinates":[[[6.6488418,46.7820181],[6.6487729,46.7819326],[6.6492528,46.7817525],[6.6493261,46.7818435],[6.6488418,46.7820181]]]}},{"type":"Feature","id":"way/79741782","properties":{"timestamp":"2016-11-30T20:37:33Z","version":"2","changeset":"44069387","user":"ALO18","uid":"4569921","amenity":"parking","parking":"surface","wheelchair":"yes","id":"way/79741782"},"geometry":{"type":"Polygon","coordinates":[[[6.64902,46.7824047],[6.6496158,46.7821935],[6.6497401,46.7823579],[6.6491444,46.7825692],[6.64902,46.7824047]]]}},{"type":"Feature","id":"way/79748205","properties":{"timestamp":"2013-09-23T07:20:22Z","version":"2","changeset":"17985925","user":"cquest","uid":"158826","leisure":"pitch","source":"Orthophoto Yverdon 2007 / HEIG-VD","sport":"soccer","surface":"grass","id":"way/79748205"},"geometry":{"type":"Polygon","coordinates":[[[6.6476572,46.7829748],[6.6472742,46.7824853],[6.6483888,46.7820813],[6.6487657,46.7825724],[6.6476572,46.7829748]]]}},{"type":"Feature","id":"way/79748206","properties":{"timestamp":"2013-09-23T07:20:22Z","version":"2","changeset":"17985925","user":"cquest","uid":"158826","leisure":"pitch","source":"Orthophoto Yverdon 2007 / HEIG-VD","sport":"soccer","surface":"grass","id":"way/79748206"},"geometry":{"type":"Polygon","coordinates":[[[6.648084,46.7835336],[6.6477072,46.7830453],[6.6488188,46.7826431],[6.6491956,46.7831314],[6.648084,46.7835336]]]}},{"type":"Feature","id":"way/79748209","properties":{"timestamp":"2013-09-23T07:20:23Z","version":"2","changeset":"17985925","user":"cquest","uid":"158826","leisure":"pitch","source":"Orthophoto Yverdon 2007 / HEIG-VD","sport":"soccer","surface":"grass","id":"way/79748209"},"geometry":{"type":"Polygon","coordinates":[[[6.6492871,46.783135],[6.6503952,46.7827284],[6.6507766,46.7832159],[6.6496685,46.7836225],[6.6492871,46.783135]]]}},{"type":"Feature","id":"way/79748803","properties":{"timestamp":"2017-07-17T17:05:46Z","version":"3","changeset":"50357343","user":"Halbtax","uid":"4671660","landuse":"recreation_ground","source":"Orthophoto Yverdon 2007 / HEIG-VD","id":"way/79748803"},"geometry":{"type":"Polygon","coordinates":[[[6.647882,46.7841626],[6.6476069,46.7838174],[6.6469713,46.7840497],[6.6460133,46.7828894],[6.6483593,46.7820251],[6.6490943,46.7829922],[6.6503141,46.7825497],[6.6503666,46.7826134],[6.6505148,46.7825663],[6.6509401,46.7833186],[6.6498903,46.7837834],[6.6498312,46.7837165],[6.6483231,46.7843319],[6.6481216,46.7840779],[6.647882,46.7841626]]]}},{"type":"Feature","id":"way/79754295","properties":{"timestamp":"2019-01-09T16:58:56Z","version":"3","changeset":"66168851","user":"Edward","uid":"364","leisure":"stadium","name":"Stade Municipal","source":"Orthophoto Yverdon 2007 / HEIG-VD","sport":"soccer","wikidata":"Q677343","id":"way/79754295"},"geometry":{"type":"Polygon","coordinates":[[[6.6464262,46.7837865],[6.6467134,46.7836884],[6.6461496,46.7829733],[6.6472934,46.7825488],[6.6480672,46.7835962],[6.6469169,46.7839947],[6.6467555,46.7837762],[6.6464873,46.7838692],[6.6464262,46.7837865]]]}},{"type":"Feature","id":"way/79757077","properties":{"timestamp":"2017-07-10T17:11:18Z","version":"2","changeset":"50181944","user":"imagoiq","uid":"1856092","addr:city":"Yverdon-les-Bains","addr:country":"CH","addr:housenumber":"5","addr:postcode":"1400","addr:street":"Rue de l'Ancien-Stand","building":"yes","source":"Orthophoto Yverdon 2007 / HEIG-VD","id":"way/79757077"},"geometry":{"type":"Polygon","coordinates":[[[6.6448393,46.7826734],[6.6450421,46.7829816],[6.6444358,46.7831687],[6.644233,46.7828604],[6.6448393,46.7826734]]]}},{"type":"Feature","id":"way/79757079","properties":{"timestamp":"2010-09-29T20:48:02Z","version":"1","changeset":"5915481","user":"Romain Aviolat [Xens]","uid":"4786","addr:city":"Yverdon-les-Bains","addr:country":"CH","addr:postcode":"1400","building":"yes","source":"Orthophoto Yverdon 2007 / HEIG-VD","id":"way/79757079"},"geometry":{"type":"Polygon","coordinates":[[[6.6439849,46.7828413],[6.6441385,46.7830806],[6.643793,46.7831778],[6.6436432,46.7829386],[6.6439849,46.7828413]]]}},{"type":"Feature","id":"way/79820851","properties":{"timestamp":"2017-07-10T17:11:19Z","version":"2","changeset":"50181944","user":"imagoiq","uid":"1856092","addr:housenumber":"3","addr:street":"Rue de l'Ancien-Stand","building":"yes","source":"Orthophoto Yverdon 2007 / HEIG-VD","id":"way/79820851"},"geometry":{"type":"Polygon","coordinates":[[[6.6439857,46.7825475],[6.6445052,46.7823776],[6.6444824,46.7823449],[6.6445676,46.782317],[6.6446766,46.7824732],[6.6440719,46.782671],[6.6439857,46.7825475]]]}},{"type":"Feature","id":"way/79820854","properties":{"timestamp":"2018-07-12T13:45:54Z","version":"2","changeset":"60653965","user":"schnelli","uid":"225842","addr:city":"Yverdon-les-Bains","addr:country":"CH","addr:postcode":"1400","addr:street":"Rue de l'Ancien-Stand","building":"yes","name":"Pavillon STE","source":"Orthophoto Yverdon 2007 / HEIG-VD","id":"way/79820854"},"geometry":{"type":"Polygon","coordinates":[[[6.6437585,46.7822638],[6.6436934,46.7821927],[6.6439404,46.7820865],[6.6439939,46.7821449],[6.6438402,46.782211],[6.6438519,46.7822237],[6.6437585,46.7822638]]]}},{"type":"Feature","id":"way/79821637","properties":{"timestamp":"2015-07-09T11:39:57Z","version":"2","changeset":"32516710","user":"schnelli","uid":"225842","addr:city":"Yverdon-les-Bains","addr:country":"CH","addr:housenumber":"14","addr:postcode":"1400","addr:street":"Rue des Pêcheurs","building":"yes","source":"Bing","id":"way/79821637"},"geometry":{"type":"Polygon","coordinates":[[[6.6456065,46.7824366],[6.6455589,46.782377],[6.6456725,46.7823345],[6.6457201,46.7823941],[6.6456065,46.7824366]]]}},{"type":"Feature","id":"way/79821640","properties":{"timestamp":"2015-07-09T11:39:56Z","version":"2","changeset":"32516710","user":"schnelli","uid":"225842","addr:city":"Yverdon-les-Bains","addr:country":"CH","addr:housenumber":"10","addr:postcode":"1400","addr:street":"Avenue des Sports","building":"yes","source":"Bing","id":"way/79821640"},"geometry":{"type":"Polygon","coordinates":[[[6.6466038,46.782459],[6.6465431,46.7823788],[6.6466868,46.7823278],[6.6467475,46.782408],[6.6466038,46.782459]]]}},{"type":"Feature","id":"way/79821642","properties":{"timestamp":"2015-07-09T11:39:57Z","version":"2","changeset":"32516710","user":"schnelli","uid":"225842","addr:city":"Yverdon-les-Bains","addr:country":"CH","addr:housenumber":"14b","addr:postcode":"1400","addr:street":"Rue des Pêcheurs","building":"yes","source":"Bing","id":"way/79821642"},"geometry":{"type":"Polygon","coordinates":[[[6.6457644,46.7823429],[6.6457445,46.7823185],[6.6457149,46.7822823],[6.6457619,46.7822643],[6.6459469,46.7821934],[6.6460823,46.7823592],[6.6459942,46.782393],[6.6459083,46.7822878],[6.6457644,46.7823429]]]}},{"type":"Feature","id":"way/79821643","properties":{"timestamp":"2017-07-12T18:24:02Z","version":"3","changeset":"50237487","user":"imagoiq","uid":"1856092","building":"yes","source":"Bing","id":"way/79821643"},"geometry":{"type":"Polygon","coordinates":[[[6.6460119,46.7821661],[6.64606,46.7821486],[6.646158,46.7822748],[6.64611,46.7822923],[6.6460119,46.7821661]]]}},{"type":"Feature","id":"way/79821647","properties":{"timestamp":"2015-07-09T11:39:58Z","version":"2","changeset":"32516710","user":"schnelli","uid":"225842","addr:city":"Yverdon-les-Bains","addr:country":"CH","addr:postcode":"1400","addr:street":"Rue des Pêcheurs","building":"yes","source":"Orthophoto Yverdon 2007 / HEIG-VD","id":"way/79821647"},"geometry":{"type":"Polygon","coordinates":[[[6.6454135,46.7825265],[6.6452018,46.7822481],[6.6453543,46.7821937],[6.6455659,46.7824722],[6.6454135,46.7825265]]]}},{"type":"Feature","id":"way/79821648","properties":{"timestamp":"2015-07-09T11:39:58Z","version":"2","changeset":"32516710","user":"schnelli","uid":"225842","addr:city":"Yverdon-les-Bains","addr:country":"CH","addr:housenumber":"8","addr:postcode":"1400","addr:street":"Avenue des Sports","building":"yes","source":"Bing","id":"way/79821648"},"geometry":{"type":"Polygon","coordinates":[[[6.6464023,46.7825349],[6.6462874,46.7823805],[6.6464116,46.7823372],[6.6465265,46.7824915],[6.6464023,46.7825349]]]}},{"type":"Feature","id":"way/79821652","properties":{"timestamp":"2015-07-09T11:39:56Z","version":"3","changeset":"32516710","user":"schnelli","uid":"225842","addr:city":"Yverdon-les-Bains","addr:country":"CH","addr:housenumber":"12","addr:postcode":"1400","addr:street":"Avenue des Sports","building":"yes","source":"Bing","id":"way/79821652"},"geometry":{"type":"Polygon","coordinates":[[[6.6464864,46.7816523],[6.6468547,46.7821149],[6.64681,46.7821316],[6.6468464,46.7821773],[6.6468159,46.7821887],[6.6468003,46.7821691],[6.6466948,46.7822085],[6.6466753,46.782184],[6.6465133,46.7822445],[6.6463786,46.7820752],[6.6464193,46.78206],[6.6464051,46.7820422],[6.6465277,46.7819965],[6.646307,46.7817193],[6.6464864,46.7816523]]]}},{"type":"Feature","id":"way/79821655","properties":{"timestamp":"2015-07-09T11:39:57Z","version":"3","changeset":"32516710","user":"schnelli","uid":"225842","addr:city":"Yverdon-les-Bains","addr:country":"CH","addr:housenumber":"2","addr:postcode":"1400","addr:street":"Avenue des Sports","building":"yes","source":"Bing","id":"way/79821655"},"geometry":{"type":"Polygon","coordinates":[[[6.6455698,46.7826078],[6.645817,46.7825207],[6.6458406,46.7825521],[6.6458965,46.7826264],[6.6456493,46.7827136],[6.6455698,46.7826078]]]}},{"type":"Feature","id":"way/79821657","properties":{"timestamp":"2015-07-09T11:39:58Z","version":"2","changeset":"32516710","user":"schnelli","uid":"225842","addr:city":"Yverdon-les-Bains","addr:country":"CH","addr:housenumber":"8b","addr:postcode":"1400","addr:street":"Avenue des Sports","building":"yes","source":"Bing","id":"way/79821657"},"geometry":{"type":"Polygon","coordinates":[[[6.6462481,46.7821951],[6.6461987,46.7821273],[6.6462836,46.7820983],[6.6463329,46.7821661],[6.6462481,46.7821951]]]}},{"type":"Feature","id":"way/79821660","properties":{"timestamp":"2015-07-09T11:39:57Z","version":"2","changeset":"32516710","user":"schnelli","uid":"225842","addr:city":"Yverdon-les-Bains","addr:country":"CH","addr:housenumber":"2b","addr:postcode":"1400","addr:street":"Avenue des Sports","building":"yes","source":"Bing","id":"way/79821660"},"geometry":{"type":"Polygon","coordinates":[[[6.6458975,46.7827162],[6.6458582,46.7826668],[6.6459665,46.7826261],[6.6460058,46.7826755],[6.6458975,46.7827162]]]}},{"type":"Feature","id":"way/79821662","properties":{"timestamp":"2015-07-09T11:39:58Z","version":"2","changeset":"32516710","user":"schnelli","uid":"225842","addr:city":"Yverdon-les-Bains","addr:country":"CH","addr:housenumber":"4","addr:postcode":"1400","addr:street":"Avenue des Sports","building":"yes","source":"Bing","id":"way/79821662"},"geometry":{"type":"Polygon","coordinates":[[[6.6460647,46.782654],[6.6460244,46.7826017],[6.646167,46.7825498],[6.6462073,46.7826021],[6.6460647,46.782654]]]}},{"type":"Feature","id":"way/79821668","properties":{"timestamp":"2015-07-09T11:39:59Z","version":"2","changeset":"32516710","user":"schnelli","uid":"225842","addr:city":"Yverdon-les-Bains","addr:country":"CH","addr:postcode":"1400","addr:street":"Avenue des Sports","building":"yes","source":"Bing","id":"way/79821668"},"geometry":{"type":"Polygon","coordinates":[[[6.6468326,46.7823845],[6.6467509,46.7822871],[6.6468117,46.7822632],[6.6468934,46.7823606],[6.6468326,46.7823845]]]}},{"type":"Feature","id":"way/79821672","properties":{"timestamp":"2018-08-14T09:59:46Z","version":"6","changeset":"61652407","user":"schnelli","uid":"225842","building":"hospital","name":"Centre de psychiatrie du Nord vaudois","toilets:wheelchair":"yes","wheelchair":"yes","id":"way/79821672"},"geometry":{"type":"Polygon","coordinates":[[[6.6472635,46.7822036],[6.6470253,46.7818996],[6.6472201,46.781828],[6.6473089,46.7819414],[6.6475056,46.7818692],[6.6473903,46.781722],[6.6475852,46.7816504],[6.6477978,46.7819218],[6.6478565,46.7819967],[6.6476701,46.7820652],[6.6476259,46.7820087],[6.6474218,46.7820837],[6.6474594,46.7821317],[6.6472635,46.7822036]]]}},{"type":"Feature","id":"way/79821674","properties":{"timestamp":"2017-07-10T18:10:43Z","version":"4","changeset":"50183238","user":"imagoiq","uid":"1856092","addr:housenumber":"32","addr:street":"Avenue des Sports","building":"yes","source":"Orthophoto Yverdon 2007 / HEIG-VD","id":"way/79821674"},"geometry":{"type":"Polygon","coordinates":[[[6.6488224,46.7812074],[6.6487379,46.7810527],[6.6488781,46.7810168],[6.648844,46.7809544],[6.6492525,46.7808497],[6.6492618,46.7808668],[6.6493973,46.7808321],[6.6495062,46.7810313],[6.6495397,46.7810227],[6.6496552,46.7812342],[6.6495106,46.7812712],[6.6493752,46.7810235],[6.6489767,46.7811256],[6.648997,46.7811626],[6.6489276,46.7811804],[6.6488224,46.7812074]]]}},{"type":"Feature","id":"way/79821677","properties":{"timestamp":"2015-07-09T11:39:59Z","version":"2","changeset":"32516710","user":"schnelli","uid":"225842","addr:city":"Yverdon-les-Bains","addr:country":"CH","addr:postcode":"1400","addr:street":"Rue des Pêcheurs","building":"yes","source":"Orthophoto Yverdon 2007 / HEIG-VD","id":"way/79821677"},"geometry":{"type":"Polygon","coordinates":[[[6.6449636,46.7819369],[6.6448814,46.7818282],[6.6450728,46.7817603],[6.645155,46.781869],[6.6451107,46.7818847],[6.6449636,46.7819369]]]}},{"type":"Feature","id":"way/79821678","properties":{"timestamp":"2015-07-09T11:39:59Z","version":"2","changeset":"32516710","user":"schnelli","uid":"225842","addr:city":"Yverdon-les-Bains","addr:country":"CH","addr:postcode":"1400","addr:street":"Avenue des Sports","building":"yes","source":"Bing","id":"way/79821678"},"geometry":{"type":"Polygon","coordinates":[[[6.6456206,46.78277],[6.645668,46.7827506],[6.6457041,46.782792],[6.6456567,46.7828114],[6.6456206,46.78277]]]}},{"type":"Feature","id":"way/79827290","properties":{"timestamp":"2017-07-06T19:36:17Z","version":"3","changeset":"50092730","user":"Rémi Bovard","uid":"129299","addr:city":"Yverdon-les-Bains","addr:country":"CH","addr:housenumber":"27","addr:postcode":"1400","addr:street":"Rue Saint-Roch","building":"yes","source":"Orthophoto Yverdon 2007 / HEIG-VD","id":"way/79827290"},"geometry":{"type":"Polygon","coordinates":[[[6.6461651,46.7795951],[6.6461131,46.7795228],[6.6462195,46.7794867],[6.6462715,46.779559],[6.6461651,46.7795951]]]}},{"type":"Feature","id":"way/79827293","properties":{"timestamp":"2010-09-30T15:18:43Z","version":"1","changeset":"5920858","user":"Rémi Bovard","uid":"129299","building":"yes","source":"Orthophoto Yverdon 2007 / HEIG-VD","id":"way/79827293"},"geometry":{"type":"Polygon","coordinates":[[[6.6458735,46.7796198],[6.6459997,46.7794691],[6.6460821,46.7795016],[6.6459559,46.7796524],[6.6458735,46.7796198]]]}},{"type":"Feature","id":"way/79827294","properties":{"timestamp":"2010-09-30T15:18:43Z","version":"1","changeset":"5920858","user":"Rémi Bovard","uid":"129299","building":"yes","source":"Orthophoto Yverdon 2007 / HEIG-VD","id":"way/79827294"},"geometry":{"type":"Polygon","coordinates":[[[6.6493501,46.7800276],[6.6493303,46.779991],[6.6492565,46.7800098],[6.6492306,46.779962],[6.6494151,46.779915],[6.6493799,46.7798502],[6.6496107,46.7797915],[6.6495625,46.7797027],[6.6502834,46.7795194],[6.6503773,46.7796926],[6.6498355,46.7798304],[6.6498707,46.7798952],[6.6493501,46.7800276]]]}},{"type":"Feature","id":"way/79827297","properties":{"timestamp":"2012-10-08T20:04:45Z","version":"2","changeset":"13417749","user":"Nzara","uid":"481380","building":"yes","source":"Orthophoto Yverdon 2007 / HEIG-VD","id":"way/79827297"},"geometry":{"type":"Polygon","coordinates":[[[6.6455587,46.780149],[6.6455303,46.7801261],[6.6454877,46.7800917],[6.6454589,46.7800685],[6.6456456,46.7799601],[6.6457453,46.7800406],[6.6455587,46.780149]]]}},{"type":"Feature","id":"way/79941304","properties":{"timestamp":"2018-08-14T09:59:46Z","version":"3","changeset":"61652407","user":"schnelli","uid":"225842","amenity":"parking","wheelchair":"yes","id":"way/79941304"},"geometry":{"type":"Polygon","coordinates":[[[6.6484012,46.7816503],[6.6481529,46.7813333],[6.6484129,46.781234],[6.6478821,46.7805701],[6.6486886,46.7802699],[6.6485991,46.780109],[6.6491276,46.7799646],[6.6492789,46.7802545],[6.6480896,46.7806322],[6.6488739,46.7816061],[6.6487424,46.7816562],[6.6486344,46.7817513],[6.6485209,46.7816064],[6.6484012,46.7816503]]]}},{"type":"Feature","id":"way/80121825","properties":{"timestamp":"2016-11-19T12:10:34Z","version":"4","changeset":"43794667","user":"wheelmap_visitor","uid":"290680","amenity":"parking","parking":"surface","source":"Orthophoto Yverdon 2007 / HEIG-VD","toilets:wheelchair":"no","wheelchair":"yes","id":"way/80121825"},"geometry":{"type":"Polygon","coordinates":[[[6.6450761,46.7817391],[6.6459212,46.7814179],[6.6464024,46.7820117],[6.6458651,46.782201],[6.6456282,46.7819114],[6.6454683,46.7819668],[6.6453394,46.7818012],[6.6451682,46.7818643],[6.6450761,46.7817391]]]}},{"type":"Feature","id":"way/80123110","properties":{"timestamp":"2017-07-10T18:10:43Z","version":"5","changeset":"50183238","user":"imagoiq","uid":"1856092","addr:city":"Yverdon-les-Bains","addr:country":"CH","addr:housenumber":"17","addr:postcode":"1400","addr:street":"Rue de l'Industrie","building":"yes","source":"Orthophoto Yverdon 2007 / HEIG-VD","id":"way/80123110"},"geometry":{"type":"Polygon","coordinates":[[[6.647942,46.7803205],[6.6481982,46.7802256],[6.6482088,46.7802391],[6.6485534,46.7801115],[6.6486226,46.7801992],[6.6484371,46.7802678],[6.6484491,46.780283],[6.6482695,46.7803495],[6.6482581,46.780335],[6.6480223,46.7804223],[6.647942,46.7803205]]]}},{"type":"Feature","id":"way/80334162","properties":{"timestamp":"2017-07-17T16:36:47Z","version":"2","changeset":"50356725","user":"Halbtax","uid":"4671660","man_made":"bridge","id":"way/80334162"},"geometry":{"type":"Polygon","coordinates":[[[6.6435121,46.7809009],[6.6437983,46.7808149],[6.6438797,46.7807772],[6.6438951,46.7807982],[6.6439081,46.7808159],[6.6439386,46.7808574],[6.6439659,46.7808947],[6.6439805,46.7809146],[6.6436178,46.7810498],[6.6436033,46.7810294],[6.6435954,46.7810183],[6.6435808,46.7809977],[6.6435503,46.7809547],[6.643527,46.7809219],[6.6435121,46.7809009]]]}},{"type":"Feature","id":"way/81853959","properties":{"timestamp":"2010-10-17T12:02:02Z","version":"1","changeset":"6066129","user":"inetis","uid":"138032","landuse":"grass","source":"Orthophoto Yverdon 2007 / HEIG-VD","id":"way/81853959"},"geometry":{"type":"Polygon","coordinates":[[[6.6482159,46.7806564],[6.6492801,46.7803255],[6.6497828,46.7812354],[6.6497469,46.781365],[6.6490842,46.7815997],[6.6489504,46.7815617],[6.6482159,46.7806564]]]}},{"type":"Feature","id":"way/81975272","properties":{"timestamp":"2016-10-14T12:27:10Z","version":"5","changeset":"42894995","user":"fredjunod","uid":"84054","building":"yes","source":"Orthophoto Yverdon 2007 / HEIG-VD","id":"way/81975272"},"geometry":{"type":"Polygon","coordinates":[[[6.647141,46.7790848],[6.6468433,46.7791513],[6.6466937,46.7791827],[6.6465125,46.7792235],[6.6465724,46.7793175],[6.6463864,46.779377],[6.6463308,46.7793013],[6.6462929,46.7793182],[6.6462835,46.7793039],[6.6462532,46.7792508],[6.6462456,46.779221],[6.6462645,46.7791652],[6.6463175,46.7791224],[6.64638,46.7790926],[6.6471888,46.7789177],[6.6472514,46.7790587],[6.647141,46.7790848]]]}},{"type":"Feature","id":"way/81975273","properties":{"timestamp":"2010-10-17T20:06:52Z","version":"1","changeset":"6071249","user":"inetis","uid":"138032","building":"yes","id":"way/81975273"},"geometry":{"type":"Polygon","coordinates":[[[6.6450804,46.7799316],[6.6452134,46.7800306],[6.6448105,46.7802843],[6.6446775,46.7801852],[6.6450804,46.7799316]]]}},{"type":"Feature","id":"way/81975275","properties":{"timestamp":"2017-07-10T17:11:15Z","version":"2","changeset":"50181944","user":"imagoiq","uid":"1856092","addr:housenumber":"15","addr:street":"Avenue Haldimand","building":"yes","id":"way/81975275"},"geometry":{"type":"Polygon","coordinates":[[[6.6447503,46.7798231],[6.6448021,46.7799013],[6.6445063,46.7799932],[6.6444545,46.779915],[6.6447503,46.7798231]]]}},{"type":"Feature","id":"way/81975277","properties":{"timestamp":"2010-10-17T20:06:53Z","version":"1","changeset":"6071249","user":"inetis","uid":"138032","building":"yes","source":"Orthophoto Yverdon 2007 / HEIG-VD","id":"way/81975277"},"geometry":{"type":"Polygon","coordinates":[[[6.6461428,46.7796249],[6.646163,46.7796627],[6.6461096,46.7796761],[6.6460893,46.7796383],[6.6461428,46.7796249]]]}},{"type":"Feature","id":"way/81975278","properties":{"timestamp":"2010-10-17T20:06:53Z","version":"1","changeset":"6071249","user":"inetis","uid":"138032","building":"yes","source":"Orthophoto Yverdon 2007 / HEIG-VD","id":"way/81975278"},"geometry":{"type":"Polygon","coordinates":[[[6.6468012,46.7796531],[6.6466152,46.7797125],[6.6463864,46.779377],[6.6465724,46.7793175],[6.6468012,46.7796531]]]}},{"type":"Feature","id":"way/81975281","properties":{"timestamp":"2017-07-17T16:55:13Z","version":"2","changeset":"50357111","user":"Halbtax","uid":"4671660","landuse":"grass","source":"Orthophoto Yverdon 2007 / HEIG-VD","id":"way/81975281"},"geometry":{"type":"Polygon","coordinates":[[[6.6491152,46.7796898],[6.6492275,46.7796591],[6.6495327,46.7795791],[6.6497909,46.7795146],[6.6502135,46.7794245],[6.6502265,46.7794389],[6.6502761,46.7794938],[6.6497258,46.7795945],[6.6491511,46.7797451],[6.6491251,46.7797051],[6.6491152,46.7796898]]]}},{"type":"Feature","id":"way/81975282","properties":{"timestamp":"2017-07-06T19:37:44Z","version":"3","changeset":"50092730","user":"Rémi Bovard","uid":"129299","addr:city":"Yverdon-les-Bains","addr:country":"CH","addr:housenumber":"29","addr:postcode":"1400","addr:street":"Avenue Haldimand","building":"yes","source":"Orthophoto Yverdon 2007 / HEIG-VD","id":"way/81975282"},"geometry":{"type":"Polygon","coordinates":[[[6.6455672,46.7792919],[6.6456431,46.7794339],[6.6455163,46.7794657],[6.6454404,46.7793236],[6.6455672,46.7792919]]]}},{"type":"Feature","id":"way/81975284","properties":{"timestamp":"2017-07-10T17:11:15Z","version":"2","changeset":"50181944","user":"imagoiq","uid":"1856092","building":"yes","id":"way/81975284"},"geometry":{"type":"Polygon","coordinates":[[[6.6445189,46.7801064],[6.6444068,46.7801466],[6.6443682,46.7800963],[6.6444804,46.7800561],[6.6444984,46.7800796],[6.6445189,46.7801064]]]}},{"type":"Feature","id":"way/81975286","properties":{"timestamp":"2017-07-06T19:37:44Z","version":"3","changeset":"50092730","user":"Rémi Bovard","uid":"129299","addr:city":"Yverdon-les-Bains","addr:country":"CH","addr:housenumber":"31","addr:postcode":"1400","addr:street":"Avenue Haldimand","building":"yes","id":"way/81975286"},"geometry":{"type":"Polygon","coordinates":[[[6.6455672,46.7792919],[6.6456959,46.7792596],[6.6457718,46.7794016],[6.6456431,46.7794339],[6.6455672,46.7792919]]]}},{"type":"Feature","id":"way/81975287","properties":{"timestamp":"2018-07-06T13:03:58Z","version":"3","changeset":"60466980","user":"schnelli","uid":"225842","addr:city":"Yverdon-les-Bains","addr:country":"CH","addr:housenumber":"4","addr:postcode":"1400","addr:street":"Rue des Pêcheurs","building":"yes","id":"way/81975287"},"geometry":{"type":"Polygon","coordinates":[[[6.6443682,46.7800963],[6.6444068,46.7801466],[6.6445539,46.7803388],[6.64442,46.7803869],[6.6442343,46.7801444],[6.6443682,46.7800963]]]}},{"type":"Feature","id":"way/81975290","properties":{"timestamp":"2017-07-10T17:11:16Z","version":"3","changeset":"50181944","user":"imagoiq","uid":"1856092","building":"yes","source":"Orthophoto Yverdon 2007 / HEIG-VD","id":"way/81975290"},"geometry":{"type":"Polygon","coordinates":[[[6.6446991,46.7796935],[6.6446276,46.7795423],[6.64462,46.7795262],[6.6449104,46.7794617],[6.6449767,46.779447],[6.6449813,46.7794567],[6.6450126,46.7795228],[6.6450309,46.7795615],[6.6447939,46.779614],[6.6448189,46.779667],[6.6446991,46.7796935]]]}},{"type":"Feature","id":"way/81975293","properties":{"timestamp":"2018-08-14T09:59:46Z","version":"4","changeset":"61652407","user":"schnelli","uid":"225842","landuse":"grass","source":"Orthophoto Yverdon 2007 / HEIG-VD","id":"way/81975293"},"geometry":{"type":"Polygon","coordinates":[[[6.6481529,46.7813333],[6.6484012,46.7816503],[6.6485209,46.7816064],[6.6486344,46.7817513],[6.6479952,46.7819861],[6.647912,46.7818798],[6.6477978,46.7819218],[6.6475852,46.7816504],[6.6473903,46.781722],[6.6468931,46.7819047],[6.6468507,46.7818505],[6.6471269,46.7817491],[6.6470855,46.7816962],[6.6476208,46.7814995],[6.6480479,46.7813426],[6.6481351,46.7813106],[6.6481529,46.7813333]]]}},{"type":"Feature","id":"way/81975297","properties":{"timestamp":"2017-07-10T17:11:15Z","version":"2","changeset":"50181944","user":"imagoiq","uid":"1856092","building":"yes","id":"way/81975297"},"geometry":{"type":"Polygon","coordinates":[[[6.6449699,46.7796323],[6.6449922,46.7796256],[6.6449738,46.7795956],[6.6450357,46.7795768],[6.6450539,46.779604],[6.6450682,46.7795979],[6.6451545,46.7797136],[6.6450562,46.779748],[6.6449699,46.7796323]]]}},{"type":"Feature","id":"way/81975298","properties":{"timestamp":"2017-07-06T19:37:45Z","version":"3","changeset":"50092730","user":"Rémi Bovard","uid":"129299","addr:city":"Yverdon-les-Bains","addr:country":"CH","addr:housenumber":"29","addr:postcode":"1400","addr:street":"Rue Saint-Roch","building":"yes","source":"Orthophoto Yverdon 2007 / HEIG-VD","id":"way/81975298"},"geometry":{"type":"Polygon","coordinates":[[[6.6459474,46.780039],[6.6460406,46.7800091],[6.6460533,46.7800277],[6.6463493,46.7799328],[6.6462842,46.7798376],[6.645971,46.779938],[6.6459015,46.7798364],[6.6463406,46.7796956],[6.6464087,46.7797951],[6.6463289,46.7798207],[6.6464419,46.779986],[6.6460067,46.7801256],[6.6459474,46.780039]]]}},{"type":"Feature","id":"way/81975301","properties":{"timestamp":"2017-07-10T17:11:15Z","version":"4","changeset":"50181944","user":"imagoiq","uid":"1856092","addr:city":"Yverdon-les-Bains","addr:country":"CH","addr:housenumber":"25","addr:street":"Avenue Haldimand","building":"yes","id":"way/81975301"},"geometry":{"type":"Polygon","coordinates":[[[6.6450268,46.7794626],[6.6451847,46.7794224],[6.6452406,46.7795252],[6.6450827,46.7795655],[6.6450525,46.7795118],[6.6450126,46.7795228],[6.6449813,46.7794567],[6.6450131,46.7794476],[6.6450268,46.7794626]]]}},{"type":"Feature","id":"way/81975303","properties":{"timestamp":"2010-10-17T20:07:01Z","version":"1","changeset":"6071249","user":"inetis","uid":"138032","landuse":"grass","source":"Orthophoto Yverdon 2007 / HEIG-VD","id":"way/81975303"},"geometry":{"type":"Polygon","coordinates":[[[6.6440864,46.7810685],[6.6442057,46.7809928],[6.644347,46.7809199],[6.6444923,46.780854],[6.64465,46.7808063],[6.6449079,46.7807348],[6.6454382,46.7806142],[6.6461343,46.7804502],[6.6469552,46.7802735],[6.6488695,46.7797772],[6.6488654,46.7797464],[6.6490005,46.7797212],[6.6490332,46.7797941],[6.6482901,46.7799875],[6.6483331,46.7801081],[6.6478274,46.7802469],[6.6477946,46.7802119],[6.6475019,46.7802876],[6.6475039,46.7803366],[6.6461302,46.780854],[6.6459439,46.7806226],[6.6458661,46.7806226],[6.6457924,46.7806381],[6.6451045,46.7809171],[6.6450246,46.7809157],[6.6449571,46.7809325],[6.6449243,46.7809703],[6.6448386,46.7810139],[6.6444915,46.7811575],[6.6444864,46.7812051],[6.6443959,46.7812499],[6.6443254,46.781239],[6.6441954,46.7811672],[6.6440864,46.7810685]]]}},{"type":"Feature","id":"way/81975306","properties":{"timestamp":"2019-03-01T15:14:54Z","version":"4","changeset":"67689408","user":"fredjunod","uid":"84054","addr:city":"Yverdon-les-Bains","addr:country":"CH","addr:housenumber":"7","addr:postcode":"1400","addr:street":"Rue des Pêcheurs","building":"yes","source":"Orthophoto Yverdon 2007 / HEIG-VD","id":"way/81975306"},"geometry":{"type":"Polygon","coordinates":[[[6.6438861,46.780636],[6.6441226,46.780551],[6.6441,46.7805216],[6.6438991,46.7802593],[6.6440387,46.7802092],[6.6442395,46.7804713],[6.6442625,46.7805012],[6.6444735,46.7804254],[6.6445207,46.780487],[6.6439335,46.780698],[6.6438861,46.780636]]]}},{"type":"Feature","id":"way/82231948","properties":{"timestamp":"2017-07-10T17:11:15Z","version":"2","changeset":"50181944","user":"imagoiq","uid":"1856092","addr:city":"Yverdon-les-Bains","addr:country":"CH","addr:housenumber":"17","addr:street":"Avenue Haldimand","building":"yes","source":"Orthophoto Yverdon 2007 / HEIG-VD","id":"way/82231948"},"geometry":{"type":"Polygon","coordinates":[[[6.6444689,46.779649],[6.6443929,46.7795336],[6.6445256,46.7794926],[6.6446016,46.779608],[6.6446252,46.7796466],[6.644566,46.7796641],[6.6445415,46.7796262],[6.6444689,46.779649]]]}},{"type":"Feature","id":"way/82231949","properties":{"timestamp":"2017-01-19T07:38:11Z","version":"2","changeset":"45290254","user":"fredjunod","uid":"84054","addr:city":"Yverdon-les-Bains","addr:country":"CH","addr:housenumber":"11","addr:street":"Avenue Haldimand","building":"yes","source":"Orthophoto Yverdon 2007 / HEIG-VD","id":"way/82231949"},"geometry":{"type":"Polygon","coordinates":[[[6.6439354,46.7797279],[6.6438521,46.7796099],[6.644006,46.7795783],[6.6440719,46.7796971],[6.6439354,46.7797279]]]}},{"type":"Feature","id":"way/82231951","properties":{"timestamp":"2017-07-10T17:11:16Z","version":"3","changeset":"50181944","user":"imagoiq","uid":"1856092","addr:city":"Yverdon-les-Bains","addr:country":"CH","addr:housenumber":"13","addr:street":"Avenue Haldimand","building":"yes","source":"Orthophoto Yverdon 2007 / HEIG-VD","id":"way/82231951"},"geometry":{"type":"Polygon","coordinates":[[[6.6440719,46.7796971],[6.644006,46.7795783],[6.6441595,46.7795498],[6.6442229,46.779658],[6.6441275,46.7796896],[6.6442405,46.7798953],[6.6441995,46.7799117],[6.6440719,46.7796971]]]}},{"type":"Feature","id":"way/82554105","properties":{"timestamp":"2017-07-17T16:55:13Z","version":"3","changeset":"50357111","user":"Halbtax","uid":"4671660","landuse":"grass","source":"Orthophoto Yverdon 2007 / HEIG-VD","id":"way/82554105"},"geometry":{"type":"Polygon","coordinates":[[[6.6490274,46.7795622],[6.6488193,46.7791709],[6.6491068,46.7791163],[6.649336,46.7790643],[6.6495069,46.7790267],[6.6497336,46.7792704],[6.6499294,46.7791844],[6.649967,46.7791681],[6.6492911,46.7784276],[6.6493878,46.7784102],[6.649741,46.7787875],[6.6498462,46.7789054],[6.6499359,46.7790001],[6.6501152,46.7791937],[6.650099,46.7792378],[6.6501498,46.779289],[6.6501057,46.7792997],[6.6490274,46.7795622]]]}},{"type":"Feature","id":"way/341778085","properties":{"timestamp":"2015-04-30T12:16:54Z","version":"1","changeset":"30657898","user":"fredjunod","uid":"84054","building":"yes","id":"way/341778085"},"geometry":{"type":"Polygon","coordinates":[[[6.6489357,46.7799578],[6.6488995,46.7798927],[6.6490477,46.7798541],[6.6490839,46.7799192],[6.6489357,46.7799578]]]}},{"type":"Feature","id":"way/341778086","properties":{"timestamp":"2017-07-10T17:11:15Z","version":"2","changeset":"50181944","user":"imagoiq","uid":"1856092","building":"yes","id":"way/341778086"},"geometry":{"type":"Polygon","coordinates":[[[6.644698,46.7797547],[6.6445103,46.7798126],[6.6444678,46.779748],[6.6445908,46.77971],[6.6446554,46.77969],[6.644698,46.7797547]]]}},{"type":"Feature","id":"way/359565600","properties":{"timestamp":"2015-07-09T11:39:52Z","version":"1","changeset":"32516710","user":"schnelli","uid":"225842","addr:city":"Yverdon-les-Bains","addr:country":"CH","addr:housenumber":"10","addr:postcode":"1400","addr:street":"Rue des Pêcheurs","building":"yes","source":"Bing","id":"way/359565600"},"geometry":{"type":"Polygon","coordinates":[[[6.6451787,46.7819746],[6.6452446,46.7820618],[6.6450976,46.782114],[6.6450316,46.7820268],[6.6451787,46.7819746]]]}},{"type":"Feature","id":"way/359565601","properties":{"timestamp":"2015-07-09T11:39:53Z","version":"1","changeset":"32516710","user":"schnelli","uid":"225842","addr:city":"Yverdon-les-Bains","addr:country":"CH","addr:housenumber":"11","addr:postcode":"1400","addr:street":"Rue des Pêcheurs","building":"yes","source":"Bing","id":"way/359565601"},"geometry":{"type":"Polygon","coordinates":[[[6.6452018,46.7822481],[6.6451334,46.7821581],[6.6453577,46.7820781],[6.6454261,46.7821681],[6.6453543,46.7821937],[6.6452018,46.7822481]]]}},{"type":"Feature","id":"way/359565602","properties":{"timestamp":"2015-07-09T11:39:53Z","version":"1","changeset":"32516710","user":"schnelli","uid":"225842","addr:city":"Yverdon-les-Bains","addr:country":"CH","addr:housenumber":"12","addr:postcode":"1400","addr:street":"Rue des Pêcheurs","building":"yes","source":"Bing","id":"way/359565602"},"geometry":{"type":"Polygon","coordinates":[[[6.6453577,46.7820781],[6.6455283,46.7820173],[6.6455967,46.7821073],[6.6454261,46.7821681],[6.6453577,46.7820781]]]}},{"type":"Feature","id":"way/359565603","properties":{"timestamp":"2015-07-09T11:39:53Z","version":"1","changeset":"32516710","user":"schnelli","uid":"225842","addr:city":"Yverdon-les-Bains","addr:country":"CH","addr:housenumber":"13","addr:postcode":"1400","addr:street":"Rue des Pêcheurs","building":"yes","source":"Bing","id":"way/359565603"},"geometry":{"type":"Polygon","coordinates":[[[6.6455283,46.7820173],[6.6456265,46.7819823],[6.6456949,46.7820723],[6.6455967,46.7821073],[6.6455283,46.7820173]]]}},{"type":"Feature","id":"way/359565604","properties":{"timestamp":"2015-07-09T11:39:53Z","version":"1","changeset":"32516710","user":"schnelli","uid":"225842","addr:city":"Yverdon-les-Bains","addr:country":"CH","addr:housenumber":"9","addr:postcode":"1400","addr:street":"Rue des Pêcheurs","building":"yes","source":"Bing","id":"way/359565604"},"geometry":{"type":"Polygon","coordinates":[[[6.6451107,46.7818847],[6.6451787,46.7819746],[6.6450316,46.7820268],[6.6449636,46.7819369],[6.6451107,46.7818847]]]}},{"type":"Feature","id":"way/359565605","properties":{"timestamp":"2015-07-09T11:39:53Z","version":"1","changeset":"32516710","user":"schnelli","uid":"225842","addr:city":"Yverdon-les-Bains","addr:country":"CH","addr:postcode":"1400","addr:street":"Rue des Pêcheurs","building":"yes","source":"Bing","id":"way/359565605"},"geometry":{"type":"Polygon","coordinates":[[[6.6452033,46.7819647],[6.6451861,46.7819399],[6.6453178,46.7818969],[6.645335,46.7819217],[6.6452033,46.7819647]]]}},{"type":"Feature","id":"way/359565606","properties":{"timestamp":"2015-07-09T11:39:54Z","version":"1","changeset":"32516710","user":"schnelli","uid":"225842","addr:city":"Yverdon-les-Bains","addr:country":"CH","addr:postcode":"1400","addr:street":"Rue des Pêcheurs","building":"yes","source":"Bing","id":"way/359565606"},"geometry":{"type":"Polygon","coordinates":[[[6.6457149,46.7822823],[6.6457445,46.7823185],[6.6456879,46.7823401],[6.6456584,46.7823039],[6.6457149,46.7822823]]]}},{"type":"Feature","id":"way/359565608","properties":{"timestamp":"2015-07-09T11:39:54Z","version":"1","changeset":"32516710","user":"schnelli","uid":"225842","addr:city":"Yverdon-les-Bains","addr:country":"CH","addr:postcode":"1400","addr:street":"Avenue des Sports","building":"yes","source":"Bing","id":"way/359565608"},"geometry":{"type":"Polygon","coordinates":[[[6.6465354,46.7824757],[6.6464958,46.7824268],[6.6465304,46.7824137],[6.64657,46.7824625],[6.6465354,46.7824757]]]}},{"type":"Feature","id":"way/359565609","properties":{"timestamp":"2015-07-09T11:39:54Z","version":"1","changeset":"32516710","user":"schnelli","uid":"225842","addr:city":"Yverdon-les-Bains","addr:country":"CH","addr:postcode":"1400","addr:street":"Avenue des Sports","building":"yes","source":"Bing","id":"way/359565609"},"geometry":{"type":"Polygon","coordinates":[[[6.6458965,46.7826264],[6.6458406,46.7825521],[6.6459232,46.782523],[6.6459791,46.7825973],[6.6458965,46.7826264]]]}},{"type":"Feature","id":"way/359565610","properties":{"timestamp":"2015-07-09T11:39:54Z","version":"1","changeset":"32516710","user":"schnelli","uid":"225842","addr:city":"Yverdon-les-Bains","addr:country":"CH","addr:postcode":"1400","addr:street":"Rue des Pêcheurs","building":"yes","source":"Bing","id":"way/359565610"},"geometry":{"type":"Polygon","coordinates":[[[6.6457149,46.7822823],[6.6456812,46.782241],[6.6456158,46.7821609],[6.6456628,46.7821429],[6.6457619,46.7822643],[6.6457149,46.7822823]]]}},{"type":"Feature","id":"way/359565611","properties":{"timestamp":"2015-07-09T11:39:54Z","version":"1","changeset":"32516710","user":"schnelli","uid":"225842","addr:city":"Yverdon-les-Bains","addr:country":"CH","addr:postcode":"1400","addr:street":"Rue des Pêcheurs","building":"yes","source":"Bing","id":"way/359565611"},"geometry":{"type":"Polygon","coordinates":[[[6.6456812,46.782241],[6.6456477,46.7822538],[6.6455672,46.7821552],[6.6456007,46.7821424],[6.6456158,46.7821609],[6.6456812,46.782241]]]}},{"type":"Feature","id":"way/359565612","properties":{"timestamp":"2015-07-09T11:39:55Z","version":"1","changeset":"32516710","user":"schnelli","uid":"225842","addr:city":"Yverdon-les-Bains","addr:country":"CH","addr:postcode":"1400","addr:street":"Avenue des Sports","building":"yes","source":"Bing","id":"way/359565612"},"geometry":{"type":"Polygon","coordinates":[[[6.6464864,46.7816523],[6.646307,46.7817193],[6.6462509,46.7817402],[6.6461318,46.7815906],[6.6461644,46.7815785],[6.6460778,46.7814696],[6.6462975,46.7813876],[6.6465032,46.781646],[6.6464864,46.7816523]]]}},{"type":"Feature","id":"way/460537619","properties":{"timestamp":"2017-07-10T18:10:44Z","version":"2","changeset":"50183238","user":"imagoiq","uid":"1856092","addr:housenumber":"20","addr:street":"Rue de l'Industrie","building":"yes","id":"way/460537619"},"geometry":{"type":"Polygon","coordinates":[[[6.6494302,46.7802031],[6.6493567,46.7800676],[6.6494539,46.7800429],[6.6494945,46.7801179],[6.6495273,46.7801784],[6.6494302,46.7802031]]]}},{"type":"Feature","id":"way/466647269","properties":{"timestamp":"2017-07-06T19:39:33Z","version":"2","changeset":"50092730","user":"Rémi Bovard","uid":"129299","addr:city":"Yverdon-les-Bains","addr:country":"CH","addr:housenumber":"27","addr:postcode":"1400","addr:street":"Avenue Haldimand","building":"yes","id":"way/466647269"},"geometry":{"type":"Polygon","coordinates":[[[6.6455163,46.7794657],[6.645379,46.7795001],[6.645303,46.7793581],[6.6454404,46.7793236],[6.6455163,46.7794657]]]}},{"type":"Feature","id":"way/466647272","properties":{"timestamp":"2017-07-06T19:39:33Z","version":"2","changeset":"50092730","user":"Rémi Bovard","uid":"129299","addr:city":"Yverdon-les-Bains","addr:country":"CH","addr:housenumber":"33","addr:postcode":"1400","addr:street":"Avenue Haldimand","building":"yes","id":"way/466647272"},"geometry":{"type":"Polygon","coordinates":[[[6.6457718,46.7794016],[6.6456959,46.7792596],[6.6458259,46.779227],[6.6459018,46.779369],[6.6457718,46.7794016]]]}},{"type":"Feature","id":"way/467902543","properties":{"timestamp":"2017-01-23T07:56:39Z","version":"1","changeset":"45388605","user":"fredjunod","uid":"84054","building":"yes","id":"way/467902543"},"geometry":{"type":"Polygon","coordinates":[[[6.6473678,46.7793226],[6.6475182,46.7797629],[6.6467676,46.7799456],[6.6467069,46.779831],[6.6472386,46.7797032],[6.6471219,46.7793594],[6.6473678,46.7793226]]]}},{"type":"Feature","id":"way/467902544","properties":{"timestamp":"2017-01-23T07:56:39Z","version":"1","changeset":"45388605","user":"fredjunod","uid":"84054","building":"yes","id":"way/467902544"},"geometry":{"type":"Polygon","coordinates":[[[6.6485001,46.7788041],[6.6488241,46.7794452],[6.6476246,46.7797371],[6.647566,46.7796211],[6.6485291,46.7793858],[6.6483378,46.7790073],[6.6480438,46.7790792],[6.6479684,46.7789301],[6.6485001,46.7788041]]]}},{"type":"Feature","id":"way/506506854","properties":{"timestamp":"2017-07-10T17:11:13Z","version":"1","changeset":"50181944","user":"imagoiq","uid":"1856092","building":"yes","id":"way/506506854"},"geometry":{"type":"Polygon","coordinates":[[[6.6444984,46.7800796],[6.6444804,46.7800561],[6.6445183,46.7800424],[6.6445363,46.7800659],[6.6444984,46.7800796]]]}},{"type":"Feature","id":"way/506506855","properties":{"timestamp":"2017-07-10T17:11:14Z","version":"1","changeset":"50181944","user":"imagoiq","uid":"1856092","building":"yes","id":"way/506506855"},"geometry":{"type":"Polygon","coordinates":[[[6.6446554,46.77969],[6.6445908,46.77971],[6.6445796,46.7796961],[6.644607,46.7796886],[6.6445989,46.7796737],[6.6446387,46.7796626],[6.6446554,46.77969]]]}},{"type":"Feature","id":"way/506516209","properties":{"timestamp":"2017-07-10T17:49:39Z","version":"1","changeset":"50182738","user":"imagoiq","uid":"1856092","building":"yes","id":"way/506516209"},"geometry":{"type":"Polygon","coordinates":[[[6.6458795,46.7831017],[6.6460181,46.7830457],[6.646068,46.783097],[6.6461089,46.783083],[6.6461702,46.7831546],[6.6461725,46.7831794],[6.6461566,46.7831981],[6.6460612,46.7832308],[6.6460249,46.7831934],[6.6459704,46.7832105],[6.6458795,46.7831017]]]}},{"type":"Feature","id":"way/506516210","properties":{"timestamp":"2017-07-10T17:49:39Z","version":"1","changeset":"50182738","user":"imagoiq","uid":"1856092","building":"yes","id":"way/506516210"},"geometry":{"type":"Polygon","coordinates":[[[6.6458409,46.7830208],[6.6458704,46.7830146],[6.6458863,46.7829368],[6.6459181,46.7829368],[6.6459,46.7830239],[6.6459,46.7830535],[6.6458772,46.7830721],[6.6458364,46.7830752],[6.6458182,46.7830612],[6.6458137,46.7830395],[6.6458409,46.7830208]]]}},{"type":"Feature","id":"way/506519634","properties":{"timestamp":"2017-07-10T18:10:43Z","version":"1","changeset":"50183238","user":"imagoiq","uid":"1856092","access":"private","amenity":"parking","parking":"sheds","id":"way/506519634"},"geometry":{"type":"Polygon","coordinates":[[[6.64885,46.7795262],[6.6488682,46.7795588],[6.6467378,46.7800721],[6.6467151,46.7800379],[6.64885,46.7795262]]]}},{"type":"Feature","id":"way/508235381","properties":{"timestamp":"2017-07-17T16:55:13Z","version":"1","changeset":"50357111","user":"Halbtax","uid":"4671660","landuse":"railway","id":"way/508235381"},"geometry":{"type":"Polygon","coordinates":[[[6.6501057,46.7792997],[6.6502265,46.7794389],[6.6491251,46.7797051],[6.6488689,46.7797916],[6.6469552,46.7802735],[6.6454382,46.7806142],[6.6449079,46.7807348],[6.64465,46.7808063],[6.6444923,46.780854],[6.644347,46.7809199],[6.6442057,46.7809928],[6.6440864,46.7810685],[6.6439805,46.7809146],[6.6438797,46.7807772],[6.6444258,46.7805878],[6.6444983,46.7806052],[6.6467151,46.7800379],[6.64885,46.7795262],[6.6500625,46.7792598],[6.6501057,46.7792997]]]}},{"type":"Feature","id":"way/616890591","properties":{"timestamp":"2018-08-14T09:59:41Z","version":"1","changeset":"61652407","user":"schnelli","uid":"225842","addr:city":"Yverdon-les-Bains","addr:country":"CH","addr:postcode":"1400","addr:street":"Avenue des Sports","building":"university","id":"way/616890591"},"geometry":{"type":"Polygon","coordinates":[[[6.6460462,46.7811269],[6.6462414,46.7810552],[6.647553,46.7805739],[6.6474433,46.7804336],[6.6475479,46.7803952],[6.6476572,46.7805348],[6.6476948,46.780521],[6.6477995,46.7806548],[6.6478279,46.7806444],[6.647861,46.7806868],[6.6478444,46.7806929],[6.6476645,46.7807589],[6.6476437,46.7807324],[6.6472448,46.7808788],[6.6469721,46.7809788],[6.6465607,46.7811298],[6.6463415,46.7812102],[6.6461627,46.7812758],[6.6460462,46.7811269]]]}},{"type":"Feature","id":"way/616890595","properties":{"timestamp":"2018-08-14T09:59:41Z","version":"1","changeset":"61652407","user":"schnelli","uid":"225842","addr:city":"Yverdon-les-Bains","addr:country":"CH","addr:postcode":"1400","addr:street":"Rue des Pêcheurs","building":"yes","id":"way/616890595"},"geometry":{"type":"Polygon","coordinates":[[[6.6448785,46.7815552],[6.6447426,46.7816051],[6.6448269,46.7817127],[6.6447656,46.7817352],[6.644491,46.7813843],[6.6445367,46.7813675],[6.6446165,46.7814695],[6.644768,46.781414],[6.6448785,46.7815552]]]}},{"type":"Feature","id":"way/616890598","properties":{"timestamp":"2018-08-14T09:59:41Z","version":"1","changeset":"61652407","user":"schnelli","uid":"225842","addr:city":"Yverdon-les-Bains","addr:country":"CH","addr:postcode":"1400","addr:street":"Rue des Pêcheurs","building":"yes","id":"way/616890598"},"geometry":{"type":"Polygon","coordinates":[[[6.6452123,46.7814149],[6.6450928,46.7812621],[6.6453425,46.7811704],[6.645462,46.7813232],[6.6452123,46.7814149]]]}},{"type":"Feature","id":"way/616890601","properties":{"timestamp":"2018-08-14T09:59:42Z","version":"1","changeset":"61652407","user":"schnelli","uid":"225842","addr:city":"Yverdon-les-Bains","addr:country":"CH","addr:postcode":"1400","addr:street":"Rue des Pêcheurs","building":"yes","id":"way/616890601"},"geometry":{"type":"Polygon","coordinates":[[[6.6461627,46.7812758],[6.6448593,46.7817542],[6.6448269,46.7817127],[6.6447426,46.7816051],[6.6448785,46.7815552],[6.6448949,46.7815761],[6.6452395,46.7814496],[6.6452123,46.7814149],[6.645462,46.7813232],[6.6454857,46.7813535],[6.645888,46.7812059],[6.6458328,46.7811355],[6.6457846,46.7811532],[6.6457309,46.7810845],[6.6457962,46.7810606],[6.6457413,46.7809904],[6.645322,46.7811443],[6.6453425,46.7811704],[6.6450928,46.7812621],[6.6450718,46.7812353],[6.6447272,46.7813618],[6.644768,46.781414],[6.6446165,46.7814695],[6.6445367,46.7813675],[6.6444826,46.7812983],[6.6458015,46.7808143],[6.6460462,46.7811269],[6.6461627,46.7812758]]]}},{"type":"Feature","id":"way/616890603","properties":{"timestamp":"2018-08-14T09:59:42Z","version":"1","changeset":"61652407","user":"schnelli","uid":"225842","addr:city":"Yverdon-les-Bains","addr:country":"CH","addr:postcode":"1400","addr:street":"Avenue des Sports","building":"university","id":"way/616890603"},"geometry":{"type":"Polygon","coordinates":[[[6.6478171,46.7809539],[6.6476645,46.7807589],[6.6478444,46.7806929],[6.6482736,46.7812413],[6.6481027,46.7813041],[6.6479995,46.7811722],[6.6479396,46.7811942],[6.647841,46.7810682],[6.6478108,46.7810296],[6.6478617,46.7810109],[6.6478171,46.7809539]]]}},{"type":"Feature","id":"way/616890609","properties":{"timestamp":"2018-08-14T09:59:42Z","version":"1","changeset":"61652407","user":"schnelli","uid":"225842","addr:city":"Yverdon-les-Bains","addr:country":"CH","addr:postcode":"1400","addr:street":"Avenue des Sports","building":"university","id":"way/616890609"},"geometry":{"type":"Polygon","coordinates":[[[6.6473797,46.7811144],[6.6472417,46.780938],[6.6472801,46.7809239],[6.6472448,46.7808788],[6.6476437,46.7807324],[6.6476645,46.7807589],[6.6478171,46.7809539],[6.6473797,46.7811144]]]}},{"type":"Feature","id":"way/616890612","properties":{"timestamp":"2018-08-14T09:59:42Z","version":"1","changeset":"61652407","user":"schnelli","uid":"225842","addr:city":"Yverdon-les-Bains","addr:country":"CH","addr:postcode":"1400","addr:street":"Avenue des Sports","building":"university","id":"way/616890612"},"geometry":{"type":"Polygon","coordinates":[[[6.6474299,46.7811786],[6.6471957,46.7812645],[6.6469721,46.7809788],[6.6472448,46.7808788],[6.6472801,46.7809239],[6.6472417,46.780938],[6.6473797,46.7811144],[6.6474299,46.7811786]]]}},{"type":"Feature","id":"way/616890615","properties":{"timestamp":"2018-08-14T09:59:42Z","version":"1","changeset":"61652407","user":"schnelli","uid":"225842","addr:city":"Yverdon-les-Bains","addr:country":"CH","addr:postcode":"1400","addr:street":"Avenue des Sports","building":"university","id":"way/616890615"},"geometry":{"type":"Polygon","coordinates":[[[6.6474913,46.7813126],[6.647624,46.7812639],[6.6475535,46.7811738],[6.647841,46.7810682],[6.6479396,46.7811942],[6.6475193,46.7813484],[6.6474913,46.7813126]]]}},{"type":"Feature","id":"way/616890619","properties":{"timestamp":"2018-08-14T09:59:42Z","version":"1","changeset":"61652407","user":"schnelli","uid":"225842","addr:city":"Yverdon-les-Bains","addr:country":"CH","addr:postcode":"1400","addr:street":"Avenue des Sports","building":"university","id":"way/616890619"},"geometry":{"type":"Polygon","coordinates":[[[6.6471957,46.7812645],[6.6474299,46.7811786],[6.6474546,46.7812101],[6.6475535,46.7811738],[6.647624,46.7812639],[6.6474913,46.7813126],[6.6472908,46.7813862],[6.6471957,46.7812645]]]}},{"type":"Feature","id":"way/616890627","properties":{"timestamp":"2018-08-14T09:59:43Z","version":"1","changeset":"61652407","user":"schnelli","uid":"225842","addr:city":"Yverdon-les-Bains","addr:country":"CH","addr:postcode":"1400","addr:street":"Avenue des Sports","building":"university","id":"way/616890627"},"geometry":{"type":"Polygon","coordinates":[[[6.6471957,46.7812645],[6.6472908,46.7813862],[6.6473218,46.7814257],[6.6469104,46.7815767],[6.6467843,46.7814155],[6.6471957,46.7812645]]]}},{"type":"Feature","id":"way/616890630","properties":{"timestamp":"2018-08-14T09:59:43Z","version":"1","changeset":"61652407","user":"schnelli","uid":"225842","addr:city":"Yverdon-les-Bains","addr:country":"CH","addr:postcode":"1400","addr:street":"Avenue des Sports","building":"university","id":"way/616890630"},"geometry":{"type":"Polygon","coordinates":[[[6.6467843,46.7814155],[6.6465607,46.7811298],[6.6469721,46.7809788],[6.6471957,46.7812645],[6.6467843,46.7814155]]]}},{"type":"Feature","id":"way/616890635","properties":{"timestamp":"2018-08-14T09:59:43Z","version":"1","changeset":"61652407","user":"schnelli","uid":"225842","addr:city":"Yverdon-les-Bains","addr:country":"CH","addr:postcode":"1400","addr:street":"Rue du Nord","building":"university","id":"way/616890635"},"geometry":{"type":"Polygon","coordinates":[[[6.6463415,46.7812102],[6.6465607,46.7811298],[6.6467843,46.7814155],[6.6469104,46.7815767],[6.6467189,46.781647],[6.6464066,46.781248],[6.646379,46.7812581],[6.6463415,46.7812102]]]}},{"type":"Feature","id":"way/616890639","properties":{"timestamp":"2018-08-14T09:59:43Z","version":"1","changeset":"61652407","user":"schnelli","uid":"225842","addr:city":"Yverdon-les-Bains","addr:country":"CH","addr:postcode":"1400","addr:street":"Avenue des Sports","building":"university","id":"way/616890639"},"geometry":{"type":"Polygon","coordinates":[[[6.6462414,46.7810552],[6.6461317,46.780915],[6.6474433,46.7804336],[6.647553,46.7805739],[6.6462414,46.7810552]]]}}]}